ONEWEB-0156             
1 48052U 21025L   25062.49304909  .00000321  00000+0  84395-3 0  9999
2 48052  87.8895  53.7686 0001773  83.6888 276.4443 13.13480295191793
ONEWEB-0161             
1 48053U 21025M   25061.93323107 -.00000540  00000+0 -15182-2 0  9991
2 48053  87.8896  53.8942 0001800  81.2446 278.8887 13.13318760191645
ONEWEB-0158             
1 48054U 21025N   25061.89452217  .00000209  00000+0  53684-3 0  9992
2 48054  87.8893  53.8859 0001708  89.0439 271.0885 13.13571831191761
ONEWEB-0157             
1 48055U 21025P   25061.91872477 -.00000341  00000+0 -96855-3 0  9996
2 48055  87.8895  53.8927 0001777  71.9385 288.1937 13.13416079191709
ONEWEB-0162             
1 48056U 21025Q   25062.49170245  .00000350  00000+0  92326-3 0  9992
2 48056  87.8892  53.7707 0001802  86.6933 273.4402 13.13405678191733
ONEWEB-0155             
1 48057U 21025R   25061.97873927  .00000128  00000+0  31437-3 0  9991
2 48057  87.8894  53.8875 0002018  82.6328 277.5031 13.13522803191831
ONEWEB-0149             
1 48058U 21025S   25062.45683420 -.00000487  00000+0 -13690-2 0  9993
2 48058  87.8896  53.7869 0001590  89.9069 270.2242 13.13383867191707
ONEWEB-0148             
1 48059U 21025T   25062.04038572  .00000478  00000+0  12719-2 0  9990
2 48059  87.8896  53.8899 0001143  80.8404 279.2855 13.13617125191761
ONEWEB-0160             
1 48060U 21025U   25061.90419078 -.00000023  00000+0 -98728-4 0  9994
2 48060  87.8898  53.9133 0002360 105.9830 254.1559 13.13510551191691
ONEWEB-0163             
1 48061U 21025V   25062.04200707  .00000404  00000+0  10692-2 0  9991
2 48061  87.8895  53.8709 0001804  77.5994 282.5337 13.13604725191847
ONEWEB-0159             
1 48062U 21025W   25062.48872450  .00000311  00000+0  81769-3 0  9991
2 48062  87.8894  53.7629 0001707  82.1939 277.9383 13.13341683191817
ONEWEB-0164             
1 48063U 21025X   25062.47091784 -.00000103  00000+0 -31837-3 0  9996
2 48063  87.8893  53.7772 0002011  86.3386 273.7973 13.13459417191800
ONEWEB-0167             
1 48064U 21025Y   25062.04323075  .00013005  00000+0  35442-1 0  9998
2 48064  87.8902  53.8814 0002219  62.3593 297.7761 13.13636353191722
ONEWEB-0166             
1 48065U 21025Z   25062.06463038 -.00000190  00000+0 -55422-3 0  9990
2 48065  87.8891  53.8470 0001653  86.6777 273.4541 13.13459316191800
ONEWEB-0151             
1 48066U 21025AA  25062.52331923 -.00000070  00000+0 -22563-3 0  9996
2 48066  87.8895  53.7752 0002004  83.8397 276.2960 13.13449175191814
ONEWEB-0170             
1 48067U 21025AB  25062.53139687 -.00000250  00000+0 -71896-3 0  9994
2 48067  87.8896  53.7778 0002405  89.9325 270.2080 13.13398218191769
ONEWEB-0168             
1 48068U 21025AC  25062.51682086  .00000108  00000+0  26183-3 0  9998
2 48068  87.8899  53.7581 0001819  83.6074 276.5262 13.13491572191774
ONEWEB-0173             
1 48069U 21025AD  25062.05168651  .00000184  00000+0  46855-3 0  9997
2 48069  87.8897  53.8600 0002017  73.3613 286.7737 13.13543129191958
ONEWEB-0171             
1 48070U 21025AE  25062.46928718 -.00000126  00000+0 -37976-3 0  9994
2 48070  87.8897  53.8134 0001972  84.8607 275.2747 13.13471136191829
ONEWEB-0172             
1 48071U 21025AF  25062.52493734 -.00000105  00000+0 -32304-3 0  9994
2 48071  87.8899  53.7687 0001980  81.3027 278.8327 13.13439851192722
ONEWEB-0174             
1 48072U 21025AG  25061.89773548  .00000146  00000+0  36521-3 0  9996
2 48072  87.8898  53.9079 0001743  84.7297 275.4031 13.13552921191966
ONEWEB-0175             
1 48073U 21025AH  25062.53625712 -.00000684  00000+0 -19117-2 0  9998
2 48073  87.8892  53.7535 0002238  86.4501 273.6884 13.13363143191707
ONEWEB-0177             
1 48074U 21025AJ  25062.01544229 -.00000098  00000+0 -30302-3 0  9994
2 48074  87.8892  53.8694 0001774  76.8843 283.2484 13.13451721191827
ONEWEB-0178             
1 48075U 21025AK  25061.88099709 -.00000848  00000+0 -23631-2 0  9996
2 48075  87.8903  53.9322 0001794  78.8572 281.2759 13.13330907191851
ONEWEB-0108             
1 48076U 21025AL  25061.99329349 -.00000219  00000+0 -63548-3 0  9999
2 48076  87.8892  53.8697 0001737  92.6703 267.4625 13.13428637191801
ONEWEB-0169             
1 48077U 21025AM  25061.94894639  .00000147  00000+0  36853-3 0  9991
2 48077  87.8895  53.8953 0001744  93.8297 266.3031 13.13385931190446
ONEWEB-0176             
1 48210U 21031A   25061.93379337  .00000010  00000+0 -78736-5 0  9997
2 48210  87.9048  23.3966 0001886  82.4287 277.7057 13.14503035186405
ONEWEB-0184             
1 48211U 21031B   25061.90683611 -.00000123  00000+0 -36752-3 0  9994
2 48211  87.9048  23.3764 0002746  74.9437 285.1996 13.14502213186379
ONEWEB-0179             
1 48212U 21031C   25061.95282265  .00000261  00000+0  66909-3 0  9998
2 48212  87.9049  23.3800 0001800  78.5645 281.5687 13.14503514186421
ONEWEB-0180             
1 48213U 21031D   25061.90998781 -.00000484  00000+0 -13387-2 0  9991
2 48213  87.9049  23.3792 0002005  75.4228 284.7124 13.14502218186301
ONEWEB-0218             
1 48214U 21031E   25061.93218969  .00000006  00000+0 -18783-4 0  9994
2 48214  87.9046  23.3761 0002745  68.2602 291.8819 13.14505602186469
ONEWEB-0209             
1 48215U 21031F   25061.92110445 -.00000163  00000+0 -47528-3 0  9997
2 48215  87.9049  23.4183 0001784  76.8977 283.2352 13.14503939186462
ONEWEB-0198             
1 48216U 21031G   25061.90524282 -.00000125  00000+0 -37169-3 0  9992
2 48216  87.9051  23.4243 0002066  71.6107 288.5247 13.14504006186574
ONEWEB-0189             
1 48217U 21031H   25061.91792642 -.00000231  00000+0 -65803-3 0  9995
2 48217  87.9048  23.3960 0002044  68.6635 291.4713 13.14503586186319
ONEWEB-0196             
1 48218U 21031J   25061.89572705  .00000084  00000+0  19125-3 0  9999
2 48218  87.9051  23.4097 0001940  79.7091 280.4257 13.14503654186316
ONEWEB-0183             
1 48219U 21031K   25061.94646387  .00000210  00000+0  53116-3 0  9993
2 48219  87.9048  23.4134 0001679  82.2079 277.9241 13.14505206186419
ONEWEB-0185             
1 48220U 21031L   25061.97263169  .00000090  00000+0  20837-3 0  9991
2 48220  87.9049  23.3783 0001698  73.8357 286.2960 13.14505036186341
ONEWEB-0187             
1 48221U 21031M   25061.94251546  .00000155  00000+0  38468-3 0  9996
2 48221  87.9047  23.4202 0001753  79.6844 280.4484 13.14503445186354
ONEWEB-0192             
1 48222U 21031N   25062.37939375 -.00000118  00000+0 -35315-3 0  9997
2 48222  87.9051  23.3313 0001943  79.0140 281.1209 13.14503406186334
ONEWEB-0219             
1 48223U 21031P   25061.90207715 -.00000098  00000+0 -29858-3 0  9994
2 48223  87.9051  23.3992 0001787  75.7858 284.3470 13.14501696186461
ONEWEB-0202             
1 48224U 21031Q   25061.95916981  .00000224  00000+0  56892-3 0  9999
2 48224  87.9048  23.4041 0002390  65.3308 294.8071 13.14501667186461
ONEWEB-0204             
1 48225U 21031R   25061.91712114 -.00000169  00000+0 -49094-3 0  9994
2 48225  87.9048  23.4243 0001636  88.2483 271.8834 13.14500109186345
ONEWEB-0205             
1 48226U 21031S   25061.89256225  .00000122  00000+0  29465-3 0  9995
2 48226  87.9049  23.4008 0001766  76.5828 283.5498 13.14503544186356
ONEWEB-0206             
1 48227U 21031T   25062.39842628  .00000147  00000+0  36315-3 0  9999
2 48227  87.9046  23.2833 0001788  79.8925 280.2406 13.14503807186384
ONEWEB-0182             
1 48228U 21031U   25061.93696101  .00000064  00000+0  13889-3 0  9991
2 48228  87.9048  23.4132 0001762  85.6851 274.4480 13.14504802186525
ONEWEB-0186             
1 48229U 21031V   25061.94806748  .00000190  00000+0  47754-3 0  9991
2 48229  87.9049  23.3732 0001833  77.5727 282.5608 13.14502910186477
ONEWEB-0181             
1 48230U 21031W   25061.92585793 -.00000130  00000+0 -38387-3 0  9993
2 48230  87.9049  23.4485 0001961  77.3328 282.8021 13.14503410186324
ONEWEB-0188             
1 48231U 21031X   25061.96392342  .00000230  00000+0  58695-3 0  9997
2 48231  87.9049  23.4337 0001803  79.9328 280.2005 13.14502800186230
ONEWEB-0220             
1 48232U 21031Y   25062.38415622 -.00000079  00000+0 -24663-3 0  9993
2 48232  87.9043  23.2995 0001664  73.7706 286.3607 13.14502475186558
ONEWEB-0165             
1 48233U 21031Z   25061.95599457  .00000283  00000+0  72930-3 0  9990
2 48233  87.9049  23.4184 0001882  76.0405 284.0934 13.14502913186455
ONEWEB-0199             
1 48234U 21031AA  25061.86402061  .00000062  00000+0  13218-3 0  9994
2 48234  87.9046  23.4024 0001951  86.4057 273.7295 13.14502917186348
ONEWEB-0203             
1 48235U 21031AB  25061.93062143 -.00000028  00000+0 -11045-3 0  9996
2 48235  87.9048  23.3915 0002252  85.3986 274.7401 13.14503421186366
ONEWEB-0197             
1 48236U 21031AC  25061.90602467 -.00000144  00000+0 -42197-3 0  9994
2 48236  87.9052  23.4070 0001558  86.6969 273.4339 13.14499818186278
ONEWEB-0194             
1 48237U 21031AD  25061.96075242  .00000224  00000+0  56843-3 0  9996
2 48237  87.9050  23.3915 0002101  87.2914 272.8456 13.14503235186458
ONEWEB-0193             
1 48238U 21031AE  25061.97659465 -.00000043  00000+0 -14935-3 0  9990
2 48238  87.9051  23.3962 0002017  80.1362 279.9996 13.14500232186403
ONEWEB-0191             
1 48239U 21031AF  25061.91158985 -.00000169  00000+0 -49012-3 0  9999
2 48239  87.9048  23.3845 0001985  79.4191 280.7162 13.14502501186253
ONEWEB-0195             
1 48240U 21031AG  25061.88859801  .00000148  00000+0  36426-3 0  9992
2 48240  87.9046  23.3876 0002007  69.2418 290.8926 13.14503198186233
ONEWEB-0201             
1 48241U 21031AH  25061.87749655  .00000228  00000+0  57972-3 0  9995
2 48241  87.9050  23.4330 0001827  76.9212 283.2121 13.14504347186466
ONEWEB-0207             
1 48242U 21031AJ  25061.93298399 -.00000040  00000+0 -14242-3 0  9994
2 48242  87.9047  23.3846 0001645  81.4733 278.6583 13.14502212186381
